[
  {
    "name": "STARLINK-34210",
    "noradId": "65653",
    "line1": "1 65653U 25211B   26167.07784602  .00005917  00000+0  41360-3 0  9990",
    "line2": "2 65653  97.3560 210.0558 0001092 120.7241 239.4094 15.05659535 41849"
  },
  {
    "name": "STARLINK-35227",
    "noradId": "65654",
    "line1": "1 65654U 25211C   26167.60397905  .00002748  00000+0  19433-3 0  9991",
    "line2": "2 65654  97.3522 210.5732 0001774  80.2450 279.8978 15.05658293 41924"
  },
  {
    "name": "STARLINK-35240",
    "noradId": "65655",
    "line1": "1 65655U 25211D   26167.08061714  .00004720  00000+0  33078-3 0  9993",
    "line2": "2 65655  97.3545 210.0529 0001864 133.5189 226.6194 15.05658576 41845"
  },
  {
    "name": "STARLINK-35344",
    "noradId": "65656",
    "line1": "1 65656U 25211E   26167.60674660  .00004846  00000+0  33952-3 0  9992",
    "line2": "2 65656  97.3518 210.5693 0001109  90.0675 270.0679 15.05661153 41927"
  },
  {
    "name": "STARLINK-34540",
    "noradId": "65657",
    "line1": "1 65657U 25211F   26167.60120752  .00004236  00000+0  29729-3 0  9991",
    "line2": "2 65657  97.3521 210.5770 0001300 156.2039 203.9249 15.05660965 41928"
  },
  {
    "name": "STARLINK-35282",
    "noradId": "65658",
    "line1": "1 65658U 25211G   26167.59567243  .00005372  00000+0  37592-3 0  9999",
    "line2": "2 65658  97.3500 210.5835 0001527 114.4639 245.6748 15.05661271 41929"
  },
  {
    "name": "STARLINK-35120",
    "noradId": "65659",
    "line1": "1 65659U 25211H   26167.59844040  .00004265  00000+0  29928-3 0  9997",
    "line2": "2 65659  97.3522 210.5807 0001235 125.0491 235.0853 15.05660981 41920"
  },
  {
    "name": "STARLINK-35246",
    "noradId": "65660",
    "line1": "1 65660U 25211J   26167.59290795  .00000816  00000+0  60518-4 0  9990",
    "line2": "2 65660  97.3531 210.5889 0001354  95.9573 264.1809 15.05650061 41922"
  },
  {
    "name": "STARLINK-35220",
    "noradId": "65661",
    "line1": "1 65661U 25211K   26167.59013611  .00003826  00000+0  26896-3 0  9995",
    "line2": "2 65661  97.3534 210.5935 0001623  89.7035 270.4379 15.05659450 41924"
  },
  {
    "name": "STARLINK-35176",
    "noradId": "65662",
    "line1": "1 65662U 25211L   26167.58736769  .00003795  00000+0  26680-3 0  9997",
    "line2": "2 65662  97.3536 210.5972 0002379 112.5006 247.6474 15.05660209 41926"
  },
  {
    "name": "STARLINK-35190",
    "noradId": "65663",
    "line1": "1 65663U 25211M   26167.58459998  .00004734  00000+0  33177-3 0  9997",
    "line2": "2 65663  97.3522 210.6022 0001964  94.9056 265.2395 15.05661568 41923"
  },
  {
    "name": "STARLINK-35201",
    "noradId": "65664",
    "line1": "1 65664U 25211N   26167.58183179  .00004492  00000+0  31504-3 0  9996",
    "line2": "2 65664  97.3516 210.6047 0002033 112.2443 247.9000 15.05661101 41929"
  },
  {
    "name": "STARLINK-35115",
    "noradId": "65665",
    "line1": "1 65665U 25211P   26167.57906006  .00003908  00000+0  27462-3 0  9997",
    "line2": "2 65665  97.3522 210.6080 0001399 101.7448 258.3937 15.05660985 41920"
  },
  {
    "name": "STARLINK-35181",
    "noradId": "65666",
    "line1": "1 65666U 25211Q   26167.57629210  .00003949  00000+0  27744-3 0  9995",
    "line2": "2 65666  97.3516 210.6111 0001572 104.0422 256.0981 15.05661219 41925"
  },
  {
    "name": "STARLINK-35361",
    "noradId": "65667",
    "line1": "1 65667U 25211R   26167.57352350  .00002670  00000+0  18891-3 0  9997",
    "line2": "2 65667  97.3518 210.6149 0002010 115.7300 244.4135 15.05660260 41928"
  },
  {
    "name": "STARLINK-35351",
    "noradId": "65668",
    "line1": "1 65668U 25211S   26167.57075500  .00001190  00000+0  86372-4 0  9993",
    "line2": "2 65668  97.3513 210.6194 0001873 104.4835 255.6600 15.05660045 41920"
  },
  {
    "name": "STARLINK-35353",
    "noradId": "65669",
    "line1": "1 65669U 25211T   26167.56798687  .00003552  00000+0  24992-3 0  9994",
    "line2": "2 65669  97.3518 210.6229 0001945 101.4722 258.6724 15.05660748 41927"
  },
  {
    "name": "STARLINK-35359",
    "noradId": "65670",
    "line1": "1 65670U 25211U   26167.56523584  .00005762  00000+0  40285-3 0  9996",
    "line2": "2 65670  97.3515 210.6270 0002119 104.2100 255.9363 15.05666113 41928"
  },
  {
    "name": "STARLINK-35194",
    "noradId": "65671",
    "line1": "1 65671U 25211V   26167.55967972  .00002893  00000+0  20437-3 0  9998",
    "line2": "2 65671  97.3515 210.6343 0001461 142.1719 217.9612 15.05658826 41923"
  },
  {
    "name": "STARLINK-35198",
    "noradId": "65672",
    "line1": "1 65672U 25211W   26167.56244891  .00003768  00000+0  26493-3 0  9998",
    "line2": "2 65672  97.3518 210.6305 0001643  95.8537 264.2878 15.05661174 41928"
  },
  {
    "name": "STARLINK-35177",
    "noradId": "65673",
    "line1": "1 65673U 25211X   26167.55414179  .00004030  00000+0  28300-3 0  9998",
    "line2": "2 65673  97.3528 210.6425 0001331 110.4391 249.6979 15.05662429 41922"
  },
  {
    "name": "STARLINK-35254",
    "noradId": "65674",
    "line1": "1 65674U 25211Y   26167.55137438  .00004728  00000+0  33136-3 0  9996",
    "line2": "2 65674  97.3517 210.6473 0001251  79.7849 280.3520 15.05660866 41927"
  },
  {
    "name": "STARLINK-34749",
    "noradId": "65675",
    "line1": "1 65675U 25211Z   26167.55691342  .00004253  00000+0  29848-3 0  9994",
    "line2": "2 65675  97.3525 210.6395 0002029  79.1029 281.0427 15.05661690 41928"
  },
  {
    "name": "STARLINK-35189",
    "noradId": "65676",
    "line1": "1 65676U 25212A   26167.49008548  .00038606  00000+0  13078-2 0  9995",
    "line2": "2 65676  53.1594 246.5240 0001474  67.2373 292.8784 15.30224998 42320"
  },
  {
    "name": "STARLINK-35222",
    "noradId": "65677",
    "line1": "1 65677U 25212B   26167.50593013  .00024912  00000+0  85004-3 0  9998",
    "line2": "2 65677  53.1587 246.6231 0000975 107.5732 252.5375 15.30213844 42389"
  },
  {
    "name": "STARLINK-35233",
    "noradId": "65678",
    "line1": "1 65678U 25212C   26167.53864683  .00036439  00000+0  12366-2 0  9993",
    "line2": "2 65678  53.1598 246.8304 0000969  83.0670 277.0441 15.30193231 42380"
  },
  {
    "name": "STARLINK-35205",
    "noradId": "65679",
    "line1": "1 65679U 25212D   26167.55091254  .00014262  00000+0  43232-3 0  9999",
    "line2": "2 65679  53.1593 246.1955 0001380  70.6268 289.4884 15.34407824 42337"
  },
  {
    "name": "STARLINK-35070",
    "noradId": "65680",
    "line1": "1 65680U 25212E   26167.48375368  .00012023  00000+0  41737-3 0  9995",
    "line2": "2 65680  53.1604 246.4814 0001375 101.1506 258.9650 15.30202906 42374"
  },
  {
    "name": "STARLINK-35230",
    "noradId": "65681",
    "line1": "1 65681U 25212F   26167.54039011  .00019669  00000+0  59148-3 0  9993",
    "line2": "2 65681  53.1597 246.1303 0000975  68.9059 291.2048 15.34413548 42397"
  },
  {
    "name": "STARLINK-35235",
    "noradId": "65682",
    "line1": "1 65682U 25212G   26167.53150492  .00014245  00000+0  43185-3 0  9999",
    "line2": "2 65682  53.1593 244.6541 0001361  81.7389 278.3768 15.34407021 42350"
  }
]