OBJECT_NAME,OBJECT_ID,EPOCH,MEAN_MOTION,ECCENTRICITY,INCLINATION,RA_OF_ASC_NODE,ARG_OF_PERICENTER,MEAN_ANOMALY,EPHEMERIS_TYPE,CLASSIFICATION_TYPE,NORAD_CAT_ID,ELEMENT_SET_NO,REV_AT_EPOCH,BSTAR,MEAN_MOTION_DOT,MEAN_MOTION_DDOT
STARLINK-34210,2025-211B,2026-06-16T01:52:05.896128,15.05659535,.00010921,97.3560,210.0558,120.7241,239.4094,0,U,65653,999,4184,.41359579E-3,.5917E-4,0
STARLINK-35227,2025-211C,2026-06-16T14:29:43.789920,15.05658293,.00017742,97.3522,210.5732,80.2450,279.8978,0,U,65654,999,4192,.19432833E-3,.2748E-4,0
STARLINK-35240,2025-211D,2026-06-16T01:56:05.320896,15.05658576,.00018645,97.3545,210.0529,133.5189,226.6194,0,U,65655,999,4184,.33078474E-3,.472E-4,0
STARLINK-35344,2025-211E,2026-06-16T14:33:42.906240,15.05661153,.00011095,97.3518,210.5693,90.0675,270.0679,0,U,65656,999,4192,.33951676E-3,.4846E-4,0
STARLINK-34540,2025-211F,2026-06-16T14:25:44.329728,15.05660965,.00013008,97.3521,210.5770,156.2039,203.9249,0,U,65657,999,4192,.29728957E-3,.4236E-4,0
STARLINK-35282,2025-211G,2026-06-16T14:17:46.097952,15.05661271,.00015275,97.3500,210.5835,114.4639,245.6748,0,U,65658,999,4192,.37592118E-3,.5372E-4,0
STARLINK-35120,2025-211H,2026-06-16T14:21:45.250560,15.05660981,.00012358,97.3522,210.5807,125.0491,235.0853,0,U,65659,999,4192,.29927639E-3,.4265E-4,0
STARLINK-35246,2025-211J,2026-06-16T14:13:47.246880,15.05650061,.00013549,97.3531,210.5889,95.9573,264.1809,0,U,65660,999,4192,.60518131E-4,.816E-5,0
STARLINK-35220,2025-211K,2026-06-16T14:09:47.759904,15.05659450,.00016239,97.3534,210.5935,89.7035,270.4379,0,U,65661,999,4192,.26896109E-3,.3826E-4,0
STARLINK-35176,2025-211L,2026-06-16T14:05:48.568416,15.05660209,.0002379,97.3536,210.5972,112.5006,247.6474,0,U,65662,999,4192,.2667971E-3,.3795E-4,0
STARLINK-35190,2025-211M,2026-06-16T14:01:49.438272,15.05661568,.00019643,97.3522,210.6022,94.9056,265.2395,0,U,65663,999,4192,.33176678E-3,.4734E-4,0
STARLINK-35201,2025-211N,2026-06-16T13:57:50.266656,15.05661101,.00020337,97.3516,210.6047,112.2443,247.9000,0,U,65664,999,4192,.31503511E-3,.4492E-4,0
STARLINK-35115,2025-211P,2026-06-16T13:53:50.789184,15.05660985,.00013994,97.3522,210.6080,101.7448,258.3937,0,U,65665,999,4192,.27461917E-3,.3908E-4,0
STARLINK-35181,2025-211Q,2026-06-16T13:49:51.637440,15.05661219,.00015726,97.3516,210.6111,104.0422,256.0981,0,U,65666,999,4192,.27744455E-3,.3949E-4,0
STARLINK-35361,2025-211R,2026-06-16T13:45:52.430400,15.05660260,.00020107,97.3518,210.6149,115.7300,244.4135,0,U,65667,999,4192,.18890882E-3,.267E-4,0
STARLINK-35351,2025-211S,2026-06-16T13:41:53.232000,15.05660045,.00018734,97.3513,210.6194,104.4835,255.6600,0,U,65668,999,4192,.86371953E-4,.119E-4,0
STARLINK-35353,2025-211T,2026-06-16T13:37:54.065568,15.05660748,.00019456,97.3518,210.6229,101.4722,258.6724,0,U,65669,999,4192,.24992066E-3,.3552E-4,0
STARLINK-35359,2025-211U,2026-06-16T13:33:56.376576,15.05666113,.00021196,97.3515,210.6270,104.2100,255.9363,0,U,65670,999,4192,.4028483E-3,.5762E-4,0
STARLINK-35194,2025-211V,2026-06-16T13:25:56.327808,15.05658826,.0001461,97.3515,210.6343,142.1719,217.9612,0,U,65671,999,4192,.20437287E-3,.2893E-4,0
STARLINK-35198,2025-211W,2026-06-16T13:29:55.585824,15.05661174,.00016431,97.3518,210.6305,95.8537,264.2878,0,U,65672,999,4192,.26492646E-3,.3768E-4,0
STARLINK-35177,2025-211X,2026-06-16T13:17:57.850656,15.05662429,.00013318,97.3528,210.6425,110.4391,249.6979,0,U,65673,999,4192,.28299576E-3,.403E-4,0
STARLINK-35254,2025-211Y,2026-06-16T13:13:58.746432,15.05660866,.00012513,97.3517,210.6473,79.7849,280.3520,0,U,65674,999,4192,.33135508E-3,.4728E-4,0
STARLINK-34749,2025-211Z,2026-06-16T13:21:57.319488,15.05661690,.00020298,97.3525,210.6395,79.1029,281.0427,0,U,65675,999,4192,.29847613E-3,.4253E-4,0
STARLINK-35189,2025-212A,2026-06-16T11:45:43.385472,15.30224998,.00014742,53.1594,246.5240,67.2373,292.8784,0,U,65676,999,4232,.1307827E-2,.38606E-3,0
STARLINK-35222,2025-212B,2026-06-16T12:08:32.363232,15.30213844,.00009751,53.1587,246.6231,107.5732,252.5375,0,U,65677,999,4238,.85004165E-3,.24912E-3,0
STARLINK-35233,2025-212C,2026-06-16T12:55:39.086112,15.30193231,.00009691,53.1598,246.8304,83.0670,277.0441,0,U,65678,999,4238,.12366473E-2,.36439E-3,0
STARLINK-35205,2025-212D,2026-06-16T13:13:18.843456,15.34407824,.00013806,53.1593,246.1955,70.6268,289.4884,0,U,65679,999,4233,.4323205E-3,.14262E-3,0
STARLINK-35070,2025-212E,2026-06-16T11:36:36.317952,15.30202906,.00013757,53.1604,246.4814,101.1506,258.9650,0,U,65680,999,4237,.41737482E-3,.12023E-3,0
STARLINK-35230,2025-212F,2026-06-16T12:58:09.705504,15.34413548,.00009753,53.1597,246.1303,68.9059,291.2048,0,U,65681,999,4239,.59148219E-3,.19669E-3,0
STARLINK-35235,2025-212G,2026-06-16T12:45:22.025088,15.34407021,.00013615,53.1593,244.6541,81.7389,278.3768,0,U,65682,999,4235,.43184924E-3,.14245E-3,0
